[{"OBJECT_NAME":"STARLINK-30158","OBJECT_ID":"2023-105J","EPOCH":"2026-03-09T22:00:01.999584","MEAN_MOTION":15.26647698,"ECCENTRICITY":8.427e-5,"INCLINATION":42.9998,"RA_OF_ASC_NODE":258.617,"ARG_OF_PERICENTER":260.5595,"MEAN_ANOMALY":182.1627,"EPHEMERIS_TYPE":0,"CLASSIFICATION_TYPE":"U","NORAD_CAT_ID":57438,"ELEMENT_SET_NO":999,"REV_AT_EPOCH":567,"BSTAR":0.0040894772,"MEAN_MOTION_DOT":0.00110786,"MEAN_MOTION_DDOT":0},{"OBJECT_NAME":"TRANSPORTER-1 OBJECT AA","OBJECT_ID":"2021-006AA","EPOCH":"2026-03-09T22:58:14.761920","MEAN_MOTION":15.29982294,"ECCENTRICITY":0.00086604,"INCLINATION":97.2381,"RA_OF_ASC_NODE":112.457,"ARG_OF_PERICENTER":185.709,"MEAN_ANOMALY":174.4054,"EPHEMERIS_TYPE":0,"CLASSIFICATION_TYPE":"U","NORAD_CAT_ID":47437,"ELEMENT_SET_NO":999,"REV_AT_EPOCH":28414,"BSTAR":0.0002197941,"MEAN_MOTION_DOT":6.312e-5,"MEAN_MOTION_DDOT":0}]
